{"spkid": "20741537", "covariance": {"epoch": "2459243.5", "elements": [{"title": "eccentricity", "value": ".3162478470355559", "units": null, "name": "e", "sigma": 8.32294455389538e-08, "label": "e"}, {"name": "q", "sigma": 7.00624109023289e-08, "title": "perihelion distance", "value": ".5759163709432028", "units": "au", "label": "q"}, {"label": "tp", "name": "tp", "sigma": 1.25038155303049e-05, "value": "2459299.635385185516", "title": "time of perihelion passage", "units": "TDB"}, {"label": "node", "sigma": 7.86688449269856e-07, "name": "om", "title": "longitude of the ascending node", "value": "35.95874569820391", "units": "deg"}, {"name": "w", "sigma": 5.11732481204819e-06, "units": "deg", "value": "317.5272422958478", "title": "argument of perihelion", "label": "peri"}, {"label": "i", "units": "deg", "title": "inclination", "value": "32.00110813377029", "sigma": 3.00440083009076e-06, "name": "i"}], "data": [["6.927140604721672E-15", "-5.83120645032536E-15", "-1.025738718892941E-12", "3.074868420698026E-14", "-4.08767166776384E-13", "-2.336071465690336E-13"], ["-5.83120645032536E-15", "4.908741421446781E-15", "8.633836396936095E-13", "-2.592290769124471E-14", "3.441492388633168E-13", "1.966958896850905E-13"], ["-1.025738718892941E-12", "8.633836396936095E-13", "1.563454028158932E-10", "-5.943525846892946E-12", "6.346711779008363E-11", "3.645542498689241E-11"], ["3.074868420698026E-14", "-2.592290769124471E-14", "-5.943525846892946E-12", "6.188787162146108E-13", "-2.808763858355044E-12", "-1.677512549867971E-12"], ["-4.08767166776384E-13", "3.441492388633168E-13", "6.346711779008363E-11", "-2.808763858355044E-12", "2.618701323200405E-11", "1.512763008062274E-11"], ["-2.336071465690336E-13", "1.966958896850905E-13", "3.645542498689241E-11", "-1.677512549867971E-12", "1.512763008062274E-11", "9.026424347850021E-12"]], "labels": ["e", "q", "tp", "node", "peri", "i"]}, "elements": [{"label": "e", "units": null, "title": "eccentricity", "value": ".3155791635155475", "sigma": "8.3199E-8", "name": "e"}, {"sigma": "1.2176E-9", "name": "a", "value": ".8425190353166682", "title": "semi-major axis", "units": "au", "label": "a"}, {"value": ".576637582905508", "title": "perihelion distance", "units": "au", "name": "q", "sigma": "7.0268E-8", "label": "q"}, {"label": "i", "value": "32.01544332207942", "title": "inclination; angle with respect to x-y ecliptic plane", "units": "deg", "name": "i", "sigma": "2.9878E-6"}, {"value": "35.93654637005632", "title": "longitude of the ascending node", "units": "deg", "sigma": "7.8434E-7", "name": "om", "label": "node"}, {"label": "peri", "sigma": "5.0912E-6", "name": "w", "title": "argument of perihelion", "value": "317.5075620532912", "units": "deg"}, {"name": "ma", "sigma": "1.7231E-5", "title": "mean anomaly", "value": "263.1305517132847", "units": "deg", "label": "M"}, {"label": "tp", "value": "2461276.506780154887", "title": "time of perihelion passage", "units": "TDB", "name": "tp", "sigma": "1.3602E-5"}, {"label": "period", "sigma": "6.1233E-7", "name": "per", "units": "d", "value": "282.4671900140457", "title": "sidereal orbital period"}, {"sigma": "2.7628E-9", "name": "n", "title": "mean motion", "value": "1.274484303759665", "units": "deg/d", "label": "n"}, {"value": "1.108400487727828", "title": "aphelion distance", "units": "au", "name": "ad", "sigma": "1.6019E-9", "label": "Q"}], "epoch": "2461200.5"}